[{"OBJECT_NAME":"ORBASTRO-PC-1","OBJECT_ID":"2023-174C","EPOCH":"2026-03-09T22:26:50.165376","MEAN_MOTION":15.43995448,"ECCENTRICITY":0.00075959,"INCLINATION":97.381,"RA_OF_ASC_NODE":153.1706,"ARG_OF_PERICENTER":162.4702,"MEAN_ANOMALY":197.681,"EPHEMERIS_TYPE":0,"CLASSIFICATION_TYPE":"U","NORAD_CAT_ID":58258,"ELEMENT_SET_NO":999,"REV_AT_EPOCH":13013,"BSTAR":0.00060269978,"MEAN_MOTION_DOT":0.00027464,"MEAN_MOTION_DDOT":0},{"OBJECT_NAME":"OBJECT AS","OBJECT_ID":"2024-199AS","EPOCH":"2026-03-09T22:02:20.934240","MEAN_MOTION":15.4118193,"ECCENTRICITY":0.00141686,"INCLINATION":97.3146,"RA_OF_ASC_NODE":300.9729,"ARG_OF_PERICENTER":280.4817,"MEAN_ANOMALY":79.4833,"EPHEMERIS_TYPE":0,"CLASSIFICATION_TYPE":"U","NORAD_CAT_ID":61775,"ELEMENT_SET_NO":999,"REV_AT_EPOCH":11886,"BSTAR":0.0004768324,"MEAN_MOTION_DOT":0.00019789,"MEAN_MOTION_DDOT":0}]
